TRANSPORTER-16 OBJECT CF
1 68493U 26067CF  26103.92852014  .00001713  00000+0  17837-3 0  9994
2 68493  97.7602  63.1902 0002469 221.8745 138.2285 14.91114555  2146
